[{"OBJECT_NAME":"ONEWEB-0422","OBJECT_ID":"2022-012E","EPOCH":"2025-08-06T20:26:23.192448","MEAN_MOTION":13.17648252,"ECCENTRICITY":0.00023479,"INCLINATION":87.9035,"RA_OF_ASC_NODE":68.404,"ARG_OF_PERICENTER":72.3996,"MEAN_ANOMALY":287.7392,"EPHEMERIS_TYPE":0,"CLASSIFICATION_TYPE":"U","NORAD_CAT_ID":51626,"ELEMENT_SET_NO":999,"REV_AT_EPOCH":17241,"BSTAR":2.762e-9,"MEAN_MOTION_DOT":1.3e-7,"MEAN_MOTION_DDOT":0},{"OBJECT_NAME":"ONEWEB-0423","OBJECT_ID":"2022-012F","EPOCH":"2025-08-06T20:16:40.188576","MEAN_MOTION":13.17647551,"ECCENTRICITY":0.00018797,"INCLINATION":87.9038,"RA_OF_ASC_NODE":68.4135,"ARG_OF_PERICENTER":85.2695,"MEAN_ANOMALY":274.8651,"EPHEMERIS_TYPE":0,"CLASSIFICATION_TYPE":"U","NORAD_CAT_ID":51627,"ELEMENT_SET_NO":999,"REV_AT_EPOCH":17230,"BSTAR":-2.5371111e-5,"MEAN_MOTION_DOT":3.0e-8,"MEAN_MOTION_DDOT":0},{"OBJECT_NAME":"ONEWEB-0425","OBJECT_ID":"2022-012G","EPOCH":"2025-08-06T21:30:59.142240","MEAN_MOTION":13.10370979,"ECCENTRICITY":0.00018423,"INCLINATION":87.8789,"RA_OF_ASC_NODE":98.9461,"ARG_OF_PERICENTER":89.2162,"MEAN_ANOMALY":270.9177,"EPHEMERIS_TYPE":0,"CLASSIFICATION_TYPE":"U","NORAD_CAT_ID":51628,"ELEMENT_SET_NO":999,"REV_AT_EPOCH":16816,"BSTAR":0.0016724429,"MEAN_MOTION_DOT":5.96e-6,"MEAN_MOTION_DDOT":0},{"OBJECT_NAME":"ONEWEB-0428","OBJECT_ID":"2022-012H","EPOCH":"2025-08-06T22:52:15.072672","MEAN_MOTION":13.10376007,"ECCENTRICITY":0.00018742,"INCLINATION":87.8794,"RA_OF_ASC_NODE":98.9566,"ARG_OF_PERICENTER":72.6534,"MEAN_ANOMALY":287.4798,"EPHEMERIS_TYPE":0,"CLASSIFICATION_TYPE":"U","NORAD_CAT_ID":51629,"ELEMENT_SET_NO":999,"REV_AT_EPOCH":16813,"BSTAR":0.001118986,"MEAN_MOTION_DOT":4.03e-6,"MEAN_MOTION_DDOT":0},{"OBJECT_NAME":"ONEWEB-0431","OBJECT_ID":"2022-012J","EPOCH":"2025-08-06T22:09:01.452672","MEAN_MOTION":13.10373315,"ECCENTRICITY":0.00016455,"INCLINATION":87.8794,"RA_OF_ASC_NODE":98.933,"ARG_OF_PERICENTER":56.6357,"MEAN_ANOMALY":303.4928,"EPHEMERIS_TYPE":0,"CLASSIFICATION_TYPE":"U","NORAD_CAT_ID":51630,"ELEMENT_SET_NO":999,"REV_AT_EPOCH":16818,"BSTAR":-0.0019435816,"MEAN_MOTION_DOT":-6.66e-6,"MEAN_MOTION_DDOT":0},{"OBJECT_NAME":"ONEWEB-0434","OBJECT_ID":"2022-012K","EPOCH":"2025-08-06T21:35:45.698208","MEAN_MOTION":13.10369996,"ECCENTRICITY":0.00019855,"INCLINATION":87.879,"RA_OF_ASC_NODE":98.9801,"ARG_OF_PERICENTER":97.752,"MEAN_ANOMALY":262.3833,"EPHEMERIS_TYPE":0,"CLASSIFICATION_TYPE":"U","NORAD_CAT_ID":51631,"ELEMENT_SET_NO":999,"REV_AT_EPOCH":16816,"BSTAR":0.00091435568,"MEAN_MOTION_DOT":3.32e-6,"MEAN_MOTION_DDOT":0},{"OBJECT_NAME":"ONEWEB-0435","OBJECT_ID":"2022-012L","EPOCH":"2025-08-06T21:47:41.981856","MEAN_MOTION":13.1036903,"ECCENTRICITY":0.00021153,"INCLINATION":87.8786,"RA_OF_ASC_NODE":98.9712,"ARG_OF_PERICENTER":71.2766,"MEAN_ANOMALY":288.8591,"EPHEMERIS_TYPE":0,"CLASSIFICATION_TYPE":"U","NORAD_CAT_ID":51632,"ELEMENT_SET_NO":999,"REV_AT_EPOCH":16815,"BSTAR":-6.2232175e-5,"MEAN_MOTION_DOT":-9.0e-8,"MEAN_MOTION_DDOT":0},{"OBJECT_NAME":"ONEWEB-0436","OBJECT_ID":"2022-012M","EPOCH":"2025-08-06T21:53:51.851616","MEAN_MOTION":13.17648373,"ECCENTRICITY":0.000185,"INCLINATION":87.9025,"RA_OF_ASC_NODE":68.3845,"ARG_OF_PERICENTER":77.8948,"MEAN_ANOMALY":282.2391,"EPHEMERIS_TYPE":0,"CLASSIFICATION_TYPE":"U","NORAD_CAT_ID":51633,"ELEMENT_SET_NO":999,"REV_AT_EPOCH":17229,"BSTAR":-2.3706828e-5,"MEAN_MOTION_DOT":4.0e-8,"MEAN_MOTION_DDOT":0},{"OBJECT_NAME":"ONEWEB-0438","OBJECT_ID":"2022-012N","EPOCH":"2025-08-06T17:43:54.294240","MEAN_MOTION":13.1037261,"ECCENTRICITY":0.00017978,"INCLINATION":87.879,"RA_OF_ASC_NODE":99.0055,"ARG_OF_PERICENTER":83.7914,"MEAN_ANOMALY":276.3418,"EPHEMERIS_TYPE":0,"CLASSIFICATION_TYPE":"U","NORAD_CAT_ID":51634,"ELEMENT_SET_NO":999,"REV_AT_EPOCH":16816,"BSTAR":0.0019713526,"MEAN_MOTION_DOT":7.01e-6,"MEAN_MOTION_DDOT":0},{"OBJECT_NAME":"ONEWEB-0439","OBJECT_ID":"2022-012P","EPOCH":"2025-08-06T21:28:35.579136","MEAN_MOTION":13.1037095,"ECCENTRICITY":0.00018779,"INCLINATION":87.8791,"RA_OF_ASC_NODE":98.9626,"ARG_OF_PERICENTER":78.9357,"MEAN_ANOMALY":281.1982,"EPHEMERIS_TYPE":0,"CLASSIFICATION_TYPE":"U","NORAD_CAT_ID":51635,"ELEMENT_SET_NO":999,"REV_AT_EPOCH":16816,"BSTAR":0.001786097,"MEAN_MOTION_DOT":6.36e-6,"MEAN_MOTION_DDOT":0},{"OBJECT_NAME":"ONEWEB-0442","OBJECT_ID":"2022-012Q","EPOCH":"2025-08-06T21:42:55.785312","MEAN_MOTION":13.17650082,"ECCENTRICITY":0.00015745,"INCLINATION":87.9028,"RA_OF_ASC_NODE":68.4398,"ARG_OF_PERICENTER":106.3603,"MEAN_ANOMALY":253.7702,"EPHEMERIS_TYPE":0,"CLASSIFICATION_TYPE":"U","NORAD_CAT_ID":51636,"ELEMENT_SET_NO":999,"REV_AT_EPOCH":17228,"BSTAR":-8.9177357e-5,"MEAN_MOTION_DOT":-2.2e-7,"MEAN_MOTION_DDOT":0},{"OBJECT_NAME":"ONEWEB-0443","OBJECT_ID":"2022-012R","EPOCH":"2025-08-06T20:21:31.771296","MEAN_MOTION":13.17648105,"ECCENTRICITY":0.00020431,"INCLINATION":87.9021,"RA_OF_ASC_NODE":68.4603,"ARG_OF_PERICENTER":92.2359,"MEAN_ANOMALY":267.9007,"EPHEMERIS_TYPE":0,"CLASSIFICATION_TYPE":"U","NORAD_CAT_ID":51637,"ELEMENT_SET_NO":999,"REV_AT_EPOCH":17232,"BSTAR":1.830041e-5,"MEAN_MOTION_DOT":2.0e-7,"MEAN_MOTION_DDOT":0},{"OBJECT_NAME":"ONEWEB-0444","OBJECT_ID":"2022-012S","EPOCH":"2025-08-06T23:04:12.683424","MEAN_MOTION":13.10373962,"ECCENTRICITY":0.00019505,"INCLINATION":87.879,"RA_OF_ASC_NODE":98.9503,"ARG_OF_PERICENTER":77.3127,"MEAN_ANOMALY":282.8218,"EPHEMERIS_TYPE":0,"CLASSIFICATION_TYPE":"U","NORAD_CAT_ID":51638,"ELEMENT_SET_NO":999,"REV_AT_EPOCH":16818,"BSTAR":0.0016256801,"MEAN_MOTION_DOT":5.8e-6,"MEAN_MOTION_DDOT":0},{"OBJECT_NAME":"ONEWEB-0445","OBJECT_ID":"2022-012T","EPOCH":"2025-08-06T21:45:18.110304","MEAN_MOTION":13.10368625,"ECCENTRICITY":0.00016057,"INCLINATION":87.878,"RA_OF_ASC_NODE":98.9138,"ARG_OF_PERICENTER":80.274,"MEAN_ANOMALY":279.8568,"EPHEMERIS_TYPE":0,"CLASSIFICATION_TYPE":"U","NORAD_CAT_ID":51639,"ELEMENT_SET_NO":999,"REV_AT_EPOCH":16818,"BSTAR":-1.5341487e-5,"MEAN_MOTION_DOT":7.0e-8,"MEAN_MOTION_DDOT":0},{"OBJECT_NAME":"ONEWEB-0446","OBJECT_ID":"2022-012U","EPOCH":"2025-08-06T23:01:49.025280","MEAN_MOTION":13.10374516,"ECCENTRICITY":0.00015586,"INCLINATION":87.8794,"RA_OF_ASC_NODE":98.9655,"ARG_OF_PERICENTER":75.3918,"MEAN_ANOMALY":284.7382,"EPHEMERIS_TYPE":0,"CLASSIFICATION_TYPE":"U","NORAD_CAT_ID":51640,"ELEMENT_SET_NO":999,"REV_AT_EPOCH":16817,"BSTAR":0.0017257879,"MEAN_MOTION_DOT":6.15e-6,"MEAN_MOTION_DDOT":0},{"OBJECT_NAME":"ONEWEB-0448","OBJECT_ID":"2022-012V","EPOCH":"2025-08-06T23:08:58.130880","MEAN_MOTION":13.10374443,"ECCENTRICITY":0.00018571,"INCLINATION":87.8792,"RA_OF_ASC_NODE":98.964,"ARG_OF_PERICENTER":79.6013,"MEAN_ANOMALY":280.5324,"EPHEMERIS_TYPE":0,"CLASSIFICATION_TYPE":"U","NORAD_CAT_ID":51641,"ELEMENT_SET_NO":999,"REV_AT_EPOCH":16814,"BSTAR":0.001992081,"MEAN_MOTION_DOT":7.08e-6,"MEAN_MOTION_DDOT":0},{"OBJECT_NAME":"ONEWEB-0449","OBJECT_ID":"2022-012W","EPOCH":"2025-08-06T23:16:09.698880","MEAN_MOTION":13.10371389,"ECCENTRICITY":0.00019291,"INCLINATION":87.8786,"RA_OF_ASC_NODE":98.9352,"ARG_OF_PERICENTER":93.2679,"MEAN_ANOMALY":266.8669,"EPHEMERIS_TYPE":0,"CLASSIFICATION_TYPE":"U","NORAD_CAT_ID":51642,"ELEMENT_SET_NO":999,"REV_AT_EPOCH":16815,"BSTAR":0.0017244548,"MEAN_MOTION_DOT":6.15e-6,"MEAN_MOTION_DDOT":0}]
