ONEWEB-0422             
1 51626U 22012E   25218.85165732  .00000013  00000+0  27620-8 0  9990
2 51626  87.9035  68.4040 0002347  72.3996 287.7392 13.17648252172410
ONEWEB-0423             
1 51627U 22012F   25218.84490959  .00000003  00000+0 -25371-4 0  9999
2 51627  87.9038  68.4135 0001879  85.2695 274.8651 13.17647551172301
ONEWEB-0425             
1 51628U 22012G   25218.89651785  .00000596  00000+0  16724-2 0  9997
2 51628  87.8789  98.9461 0001842  89.2162 270.9177 13.10370979168166
ONEWEB-0428             
1 51629U 22012H   25218.95295223  .00000403  00000+0  11190-2 0  9995
2 51629  87.8794  98.9566 0001874  72.6534 287.4798 13.10376007168130
ONEWEB-0431             
1 51630U 22012J   25218.92293348 -.00000666  00000+0 -19436-2 0  9994
2 51630  87.8794  98.9330 0001645  56.6357 303.4928 13.10373315168180
ONEWEB-0434             
1 51631U 22012K   25218.89983447  .00000332  00000+0  91436-3 0  9996
2 51631  87.8790  98.9801 0001985  97.7520 262.3833 13.10369996168161
ONEWEB-0435             
1 51632U 22012L   25218.90812479 -.00000009  00000+0 -62232-4 0  9991
2 51632  87.8786  98.9712 0002115  71.2766 288.8591 13.10369030168155
ONEWEB-0436             
1 51633U 22012M   25218.91240569  .00000004  00000+0 -23707-4 0  9996
2 51633  87.9025  68.3845 0001850  77.8948 282.2391 13.17648373172293
ONEWEB-0438             
1 51634U 22012N   25218.73882285  .00000701  00000+0  19714-2 0  9998
2 51634  87.8790  99.0055 0001797  83.7914 276.3418 13.10372610168161
ONEWEB-0439             
1 51635U 22012P   25218.89485624  .00000636  00000+0  17861-2 0  9990
2 51635  87.8791  98.9626 0001877  78.9357 281.1982 13.10370950168166
ONEWEB-0442             
1 51636U 22012Q   25218.90481233 -.00000022  00000+0 -89177-4 0  9997
2 51636  87.9028  68.4398 0001574 106.3603 253.7702 13.17650082172280
ONEWEB-0443             
1 51637U 22012R   25218.84828439  .00000020  00000+0  18300-4 0  9990
2 51637  87.9021  68.4603 0002043  92.2359 267.9007 13.17648105172329
ONEWEB-0444             
1 51638U 22012S   25218.96125791  .00000580  00000+0  16257-2 0  9993
2 51638  87.8790  98.9503 0001950  77.3127 282.8218 13.10373962168180
ONEWEB-0445             
1 51639U 22012T   25218.90645961  .00000007  00000+0 -15341-4 0  9994
2 51639  87.8780  98.9138 0001605  80.2740 279.8568 13.10368625168189
ONEWEB-0446             
1 51640U 22012U   25218.95959520  .00000615  00000+0  17258-2 0  9991
2 51640  87.8794  98.9655 0001558  75.3918 284.7382 13.10374516168173
ONEWEB-0448             
1 51641U 22012V   25218.96456170  .00000708  00000+0  19921-2 0  9998
2 51641  87.8792  98.9640 0001857  79.6013 280.5324 13.10374443168147
ONEWEB-0449             
1 51642U 22012W   25218.96955670  .00000615  00000+0  17245-2 0  9992
2 51642  87.8786  98.9352 0001929  93.2679 266.8669 13.10371389168157
